STARLINK-34252          
1 64330U 25124P   26068.52780726  .00027121  00000+0  99127-3 0  9992
2 64330  42.9998 122.8081 0001959 261.2103  98.8527 15.27585690 41754
REAL                    
1 64875U 25154G   26068.72233414  .00022901  00000+0  82904-3 0  9994
2 64875  97.4133 137.2581 0001853 118.5876 241.5550 15.28408058 34830
